IRIDIUM 119             
1 42959U 17061E   25136.21361932  .00000256  00000+0  84413-4 0  9994
2 42959  86.4017 191.1310 0002148  99.9757 260.1681 14.34214259397912
IRIDIUM 107             
1 42960U 17061F   25136.51169880  .00000046  00000+0  93605-5 0  9998
2 42960  86.4019 191.0255 0002562 104.7698 255.3782 14.34217867397963
IRIDIUM 132             
1 42961U 17061G   25136.51804113  .00000022  00000+0  79143-6 0  9990
2 42961  86.4018 191.0052 0002379  97.0671 263.0795 14.34217830397969
IRIDIUM 136             
1 42962U 17061H   25136.20091122 -.00000015  00000+0 -12493-4 0  9992
2 42962  86.4021 191.1421 0002104 100.6059 259.5374 14.34217583397937
IRIDIUM 139             
1 42963U 17061J   25136.20725408  .00000130  00000+0  39446-4 0  9997
2 42963  86.4018 191.1948 0002475  99.7743 260.3732 14.34217544397943
IRIDIUM 125             
1 42964U 17061K   25136.12479745  .00000242  00000+0  79298-4 0  9992
2 42964  86.4021 191.2829 0002080 109.5453 250.5967 14.34216703397944
IRIDIUM 135             
1 43070U 17083A   25136.44776769  .00000012  00000+0 -28283-5 0  9991
2 43070  86.3947 127.8864 0002311  83.1139 277.0319 14.34217471387282
IRIDIUM 138             
1 43071U 17083B   25136.47313727 -.00000010  00000+0 -10788-4 0  9995
2 43071  86.3936 127.5508 0001663  90.7265 269.4121 14.34217412387276
